     2.11           N: GPS NAV DATA                         RINEX VERSION / TYPE
teqc  2019Feb25                         20221121 12:24:52UTCPGM / RUN BY / DATE
OSX ker:10.11.6|Core i5|gcc 4.3 -m64|OSX ker:10.10+|=+      COMMENT
    4.6566D-09  1.4901D-08 -5.9605D-08 -1.1921D-07          ION ALPHA
    8.1920D+04  8.1920D+04 -6.5536D+04 -5.2429D+05          ION BETA
    9.313225746155D-10 4.440892098501D-15   147456     1539 DELTA-UTC: A0,A1,T,W
                                                            END OF HEADER
23 09  7  5 18  0  0.0 3.901412710547D-04-1.136868377216D-13 0.000000000000D+00
    9.100000000000D+01 7.334375000000D+01 4.519831126251D-09-1.616307477100D+00
    3.561377525330D-06 6.289915647358D-03 2.073124051094D-06 5.153594911575D+03
    6.480000000000D+04 2.048909664154D-08 9.533484413035D-01-1.043081283569D-07
    9.701634323668D-01 3.491250000000D+02 2.904991653248D+00-8.228557038144D-09
    3.321566928024D-10 1.000000000000D+00 1.539000000000D+03 0.000000000000D+00
    2.800000000000D+00 0.000000000000D+00-2.002343535423D-08 9.100000000000D+01
    6.199200000000D+04 4.000000000000D+00
16 09  7  5 18  0  0.0 3.561936318874D-05-3.524291969370D-12 0.000000000000D+00
    6.600000000000D+01-6.915625000000D+01 4.092313318419D-09 6.506578989475D-01
   -3.760680556297D-06 5.349385202862D-03 9.579584002495D-06 5.153581096649D+03
    6.480000000000D+04 9.872019290924D-08 3.064908473054D+00-3.166496753693D-08
    9.692267683453D-01 1.958750000000D+02-3.237983129166D-01-7.693534752318D-09
    1.050043738536D-10 1.000000000000D+00 1.539000000000D+03 0.000000000000D+00
    2.000000000000D+00 0.000000000000D+00-9.778887033463D-09 6.600000000000D+01
    6.403200000000D+04 4.000000000000D+00
23 09  7  5 17 59 44.0 3.901426680386D-04-1.136868377216D-13 0.000000000000D+00
    4.000000000000D+00 7.334375000000D+01 4.519831126251D-09-1.618641106465D+00
    3.561377525330D-06 6.289912154898D-03 2.073124051094D-06 5.153594896317D+03
    6.478400000000D+04 2.048909664154D-08 9.533485744291D-01-1.043081283569D-07
    9.701634206635D-01 3.491250000000D+02 2.904991564010D+00-8.228199880409D-09
    3.321566928024D-10 1.000000000000D+00 1.539000000000D+03 0.000000000000D+00
    2.000000000000D+00 0.000000000000D+00-2.002343535423D-08 4.000000000000D+00
    6.447600000000D+04 4.000000000000D+00
31 09  7  5 20  0  0.0-6.339652463794D-05-5.684341886081D-13 0.000000000000D+00
    6.200000000000D+01-1.118437500000D+02 4.401611916233D-09-2.337347877498D+00
   -5.565583705902D-06 6.985927699134D-03 2.786517143250D-06 5.153746355057D+03
    7.200000000000D+04 3.725290298462D-08 1.993760450823D+00 1.452863216400D-07
    9.731384884041D-01 3.326250000000D+02-1.138451825751D+00-8.003190507866D-09
   -1.435774091468D-10 1.000000000000D+00 1.539000000000D+03 0.000000000000D+00
    2.000000000000D+00 0.000000000000D+00-1.303851604462D-08 6.200000000000D+01
    6.481800000000D+04 4.000000000000D+00
30 09  7  5 20  0  0.0 1.587565056980D-04 2.842170943040D-12 0.000000000000D+00
    1.600000000000D+02-9.034375000000D+01 4.452328314488D-09 1.605424754899D+00
   -4.924833774567D-06 1.158694806509D-02 1.035630702972D-05 5.153583242416D+03
    7.200000000000D+04-1.341104507446D-07 2.999486372784D+00-2.775341272354D-07
    9.528754447785D-01 1.764375000000D+02 1.425361118846D+00-7.798539126172D-09
    2.532248335450D-10 1.000000000000D+00 1.539000000000D+03 0.000000000000D+00
    2.000000000000D+00 0.000000000000D+00-8.381903171539D-09 1.600000000000D+02
    6.481800000000D+04 4.000000000000D+00
20 09  7  5 20  0  0.0 7.811747491360D-05-1.023181539495D-12 0.000000000000D+00
    1.130000000000D+02 8.378125000000D+01 4.471257674401D-09 2.049909256754D+00
    4.414469003677D-06 3.873524605297D-03 9.765848517418D-06 5.153582378387D+03
    7.200000000000D+04 8.940696716309D-08-1.245686389324D-01-7.823109626770D-08
    9.418353155185D-01 1.799375000000D+02 1.365699305326D+00-7.886042771050D-09
   -6.393123442110D-11 1.000000000000D+00 1.539000000000D+03 0.000000000000D+00
    2.000000000000D+00 0.000000000000D+00-6.519258022308D-09 1.130000000000D+02
    6.481800000000D+04 4.000000000000D+00
32 09  7  5 20  0  0.0 2.366411499679D-04-5.911715561524D-12 0.000000000000D+00
    1.480000000000D+02 1.016562500000D+02 4.023381875719D-09-1.394791423827D+00
    5.446374416351D-06 1.323566155042D-02 9.842216968536D-06 5.153789896011D+03
    7.200000000000D+04-2.291053533554D-07-1.426025040810D-02 1.266598701477D-07
    9.638683627462D-01 1.967812500000D+02-1.145528680256D+00-7.833183426389D-09
    7.143154683922D-11 1.000000000000D+00 1.539000000000D+03 0.000000000000D+00
    2.000000000000D+00 0.000000000000D+00-3.259629011154D-09 1.480000000000D+02
    6.481800000000D+04 4.000000000000D+00
29 09  7  5 19 59 44.0 3.672577440739D-05 3.524291969370D-12 0.000000000000D+00
    2.400000000000D+01 1.262500000000D+01 4.731625662630D-09-3.121093942639D+00
    6.705522537231D-07 3.362962510437D-03 6.280839443207D-06 5.153646018982D+03
    7.198400000000D+04 3.352761268616D-08-2.168064433569D+00 3.539025783539D-08
    9.597503697753D-01 2.572500000000D+02-1.304057146917D+00-7.878542458631D-09
    2.375098932404D-10 1.000000000000D+00 1.539000000000D+03 0.000000000000D+00
    2.000000000000D+00 0.000000000000D+00-8.847564458847D-09 2.400000000000D+01
    6.481800000000D+04 4.000000000000D+00
23 09  7  5 19 59 44.0 3.901422023773D-04-1.136868377216D-13 0.000000000000D+00
    2.200000000000D+01 7.653125000000D+01 4.391254341941D-09-5.683442253154D-01
    3.913417458534D-06 6.289777695201D-03 1.810491085052D-06 5.153595502853D+03
    7.198400000000D+04 6.332993507385D-08 9.532892370089D-01-5.401670932770D-08
    9.701659368826D-01 3.448437500000D+02 2.904922702994D+00-8.242486189777D-09
    3.482287908412D-10 1.000000000000D+00 1.539000000000D+03 0.000000000000D+00
    2.000000000000D+00 0.000000000000D+00-2.002343535423D-08 2.200000000000D+01
    6.481800000000D+04 4.000000000000D+00
 2 09  7  5 20  0  0.0 1.587746664882D-04 1.477928890381D-12 0.000000000000D+00
    8.800000000000D+01-8.500000000000D+00 5.061282251293D-09-4.682167035622D-01
   -5.401670932770D-07 9.051333065145D-03 6.919726729393D-06 5.153668844223D+03
    7.200000000000D+04 1.844018697739D-07-1.159958162491D+00-2.067536115646D-07
    9.407557873061D-01 2.397500000000D+02 2.857312067751D+00-8.191412633787D-09
   -5.228789228631D-10 1.000000000000D+00 1.539000000000D+03 0.000000000000D+00
    2.000000000000D+00 0.000000000000D+00-1.722946763039D-08 8.800000000000D+01
    6.481800000000D+04 4.000000000000D+00
16 09  7  5 20  0  0.0 3.559328615665D-05-3.524291969370D-12 0.000000000000D+00
    6.900000000000D+01-7.543750000000D+01 4.233747781160D-09 1.701024479366D+00
   -3.585591912270D-06 5.348926410079D-03 9.693205356598D-06 5.153579549789D+03
    7.200000000000D+04 1.434236764908D-07 3.064853133789D+00 2.980232238770D-08
    9.692275510065D-01 1.944687500000D+02-3.239292470105D-01-7.684248651229D-09
    1.228622605635D-10 1.000000000000D+00 1.539000000000D+03 0.000000000000D+00
    2.000000000000D+00 0.000000000000D+00-9.778887033463D-09 6.900000000000D+01
    6.481800000000D+04 4.000000000000D+00
 4 09  7  5 20  0  0.0-1.621786504984D-04-1.637090463191D-11 0.000000000000D+00
    1.140000000000D+02-1.081250000000D+01 4.996279543669D-09 2.406280218978D+00
   -7.096678018570D-07 8.610814460553D-03 7.105991244316D-06 5.153760784149D+03
    7.200000000000D+04-8.940696716309D-08-1.141628887368D+00-5.401670932770D-08
    9.399715549597D-01 2.346875000000D+02 4.913243709122D-01-8.067121742287D-09
   -5.453798601174D-10 1.000000000000D+00 1.539000000000D+03 0.000000000000D+00
    2.000000000000D+00 0.000000000000D+00-6.053596735001D-09 1.140000000000D+02
    6.481800000000D+04 4.000000000000D+00
13 09  7  5 20  0  0.0 3.008353523910D-04 7.958078640513D-13 0.000000000000D+00
    9.200000000000D+01 6.834375000000D+01 3.871232680951D-09 1.423015291670D-01
    3.265216946602D-06 4.158380790614D-03 2.143904566765D-06 5.153686334610D+03
    7.200000000000D+04-9.313225746155D-09 1.006250910595D+00 1.862645149231D-08
    9.946730287413D-01 3.543125000000D+02 1.613918912235D+00-8.013905239892D-09
    2.846547141543D-10 1.000000000000D+00 1.539000000000D+03 0.000000000000D+00
    2.000000000000D+00 0.000000000000D+00-1.117587089539D-08 9.200000000000D+01
    6.637200000000D+04 4.000000000000D+00
24 09  7  5 20  0  0.0 2.021803520620D-04 2.842170943040D-12 0.000000000000D+00
    8.300000000000D+01-3.812500000000D+00 4.641621913612D-09 1.810179595440D+00
   -1.247972249985D-07 6.646584486589D-03 7.316470146179D-06 5.153668436050D+03
    7.200000000000D+04 3.352761268616D-08-1.095931667050D+00 1.378357410431D-07
    9.501680456958D-01 2.323125000000D+02-6.500735582645D-01-7.819611432489D-09
   -5.821671067396D-10 1.000000000000D+00 1.539000000000D+03 0.000000000000D+00
    2.800000000000D+00 0.000000000000D+00-1.396983861923D-09 8.300000000000D+01
    6.793200000000D+04 4.000000000000D+00
25 09  7  5 20  0  0.0 4.946868866682D-04 1.773514668457D-11 0.000000000000D+00
    8.400000000000D+01-8.815625000000D+01 4.440899266994D-09 2.311910261485D+00
   -4.651024937630D-06 1.130012306385D-02 2.261251211166D-06 5.153650516510D+03
    7.200000000000D+04 1.750886440277D-07 1.901230569245D+00-5.960464477539D-08
    9.699475466200D-01 3.413750000000D+02-1.209548547215D+00-8.006047769739D-09
   -2.146517982518D-10 1.000000000000D+00 1.539000000000D+03 0.000000000000D+00
    2.000000000000D+00 0.000000000000D+00-7.450580596924D-09 8.400000000000D+01
    6.937200000000D+04 4.000000000000D+00
